MALLIGYONG-1            
1 58400U 23179A   24111.59577766  .00012139  00000+0  53338-3 0  9990
2 58400  97.4119 359.3090 0011368 103.5131 256.7373 15.21999953 22967
